ONEWEB-0474             
1 51654U 22012AJ  23346.19928782  .00000014  00000+0  31246-5 0  9997
2 51654  87.8907 218.5970 0001165  84.2772 275.8488 13.10367920 90369
ONEWEB-0475             
1 51655U 22012AK  23346.07699880  .00000061  00000+0  12507-3 0  9998
2 51655  87.9210 188.4057 0001020  90.7958 269.3290 13.17648185 94070
ONEWEB-0490             
1 54113U 22138A   23345.91738977 -.00000098  00000+0 -27636-3 0  9993
2 54113  87.9185 127.7542 0001516 104.2609 255.8692 13.19724274 55712
ONEWEB-0492             
1 54114U 22138B   23345.94266567 -.00000081  00000+0 -23446-3 0  9995
2 54114  87.9187 127.7436 0001509 117.6271 242.5015 13.19726009 56599
ONEWEB-0495             
1 54115U 22138C   23345.92054641  .00000066  00000+0  13220-3 0  9992
2 54115  87.9186 127.7591 0001244 119.1896 240.9361 13.19725150 55701
ONEWEB-0497             
1 54116U 22138D   23346.46390844  .00000102  00000+0  22354-3 0  9990
2 54116  87.9189 127.6461 0001555 109.0256 251.1045 13.19724705 56634
ONEWEB-0499             
1 54117U 22138E   23345.91582613  .00000111  00000+0  24512-3 0  9995
2 54117  87.9185 127.7499 0001167  89.2754 270.8513 13.19726723 55701
ONEWEB-0500             
1 54118U 22138F   23345.91897583  .00000043  00000+0  74617-4 0  9997
2 54118  87.9192 127.7491 0001563 105.9484 254.1821 13.19725714 55715
